[{"OBJECT_NAME":"OBJECT AD","OBJECT_ID":"2023-085AD","EPOCH":"2026-03-09T21:41:29.115744","MEAN_MOTION":15.31779154,"ECCENTRICITY":0.00101154,"INCLINATION":97.4841,"RA_OF_ASC_NODE":180.2223,"ARG_OF_PERICENTER":77.5993,"MEAN_ANOMALY":282.638,"EPHEMERIS_TYPE":0,"CLASSIFICATION_TYPE":"U","NORAD_CAT_ID":57031,"ELEMENT_SET_NO":999,"REV_AT_EPOCH":15156,"BSTAR":0.00068352515,"MEAN_MOTION_DOT":0.00020961,"MEAN_MOTION_DDOT":0},{"OBJECT_NAME":"STARLINK-32089","OBJECT_ID":"2024-086F","EPOCH":"2026-03-09T22:43:41.097216","MEAN_MOTION":15.27576657,"ECCENTRICITY":6.181e-5,"INCLINATION":43.0023,"RA_OF_ASC_NODE":58.2597,"ARG_OF_PERICENTER":216.623,"MEAN_ANOMALY":143.458,"EPHEMERIS_TYPE":0,"CLASSIFICATION_TYPE":"U","NORAD_CAT_ID":59687,"ELEMENT_SET_NO":999,"REV_AT_EPOCH":10415,"BSTAR":-3.0076399e-5,"MEAN_MOTION_DOT":-1.089e-5,"MEAN_MOTION_DDOT":0}]
